[{"OBJECT_NAME":"STARLINK-31700","OBJECT_ID":"2024-065R","EPOCH":"2026-03-09T21:31:21.334080","MEAN_MOTION":15.30222279,"ECCENTRICITY":0.00012843,"INCLINATION":53.1591,"RA_OF_ASC_NODE":280.5326,"ARG_OF_PERICENTER":68.3922,"MEAN_ANOMALY":291.7215,"EPHEMERIS_TYPE":0,"CLASSIFICATION_TYPE":"U","NORAD_CAT_ID":59436,"ELEMENT_SET_NO":999,"REV_AT_EPOCH":10896,"BSTAR":0.00043421869,"MEAN_MOTION_DOT":0.00012532,"MEAN_MOTION_DDOT":0},{"OBJECT_NAME":"GLOBAL-34","OBJECT_ID":"2026-043A","EPOCH":"2026-03-09T11:23:30.999840","MEAN_MOTION":15.31488019,"ECCENTRICITY":0.00068849,"INCLINATION":42.0215,"RA_OF_ASC_NODE":76.7399,"ARG_OF_PERICENTER":289.2632,"MEAN_ANOMALY":70.746,"EPHEMERIS_TYPE":0,"CLASSIFICATION_TYPE":"U","NORAD_CAT_ID":68098,"ELEMENT_SET_NO":999,"REV_AT_EPOCH":53,"BSTAR":0.00045822046,"MEAN_MOTION_DOT":0.00014018,"MEAN_MOTION_DDOT":0}]
